start=new Date('2022-12-31T00:00:00.000Z').valueOf();
sats=[{"CLASSIFICATION_TYPE":"U","RCS_SIZE":"LARGE","EPOCH":"2022-12-30T14:00:01.000224","MEAN_MOTION":"15.24399809","TIME_SYSTEM":"UTC","TLE_LINE1":"1 53856U 22114AQ  22364.58334491 -.01069964  00000-0 -47062-1 0  9998","SITE":"AFETR","COUNTRY_CODE":"US","INCLINATION":"53.2172","TLE_LINE2":"2 53856  53.2172 114.9042 0001412  50.3071 333.8247 15.24399809  1308","OBJECT_ID":"2022-114AQ","GP_ID":"221789895","SEMIMAJOR_AXIS":"6870.725","ECCENTRICITY":"0.00014120","MEAN_ELEMENT_THEORY":"SGP4","ELEMENT_SET_NO":"999","REV_AT_EPOCH":"130","MEAN_ANOMALY":"333.8247","EPHEMERIS_TYPE":"0","CENTER_NAME":"EARTH","OBJECT_TYPE":"PAYLOAD","MEAN_MOTION_DOT":"-0.01069964","OBJECT_NAME":"STARLINK-4795","BSTAR":"-0.04706200000000","RA_OF_ASC_NODE":"114.9042","DECAY_DATE":null,"FILE":"3726810","PERIAPSIS":"491.620","ARG_OF_PERICENTER":"50.3071","MEAN_MOTION_DDOT":"0.0000000000000","PERIOD":"94.463","APOAPSIS":"493.560","REF_FRAME":"TEME","LAUNCH_DATE":"2022-09-19","NORAD_CAT_ID":"53856"},{"EPHEMERIS_TYPE":"0","CENTER_NAME":"EARTH","OBJECT_TYPE":"PAYLOAD","MEAN_MOTION_DOT":"0.00001397","OBJECT_NAME":"STARLINK-4809","BSTAR":"0.00010588000000","RA_OF_ASC_NODE":"123.2375","DECAY_DATE":null,"FILE":"3727142","PERIAPSIS":"538.533","ARG_OF_PERICENTER":"43.5976","MEAN_MOTION_DDOT":"0.0000000000000","PERIOD":"95.437","APOAPSIS":"540.948","REF_FRAME":"TEME","LAUNCH_DATE":"2022-09-19","NORAD_CAT_ID":"53857","CLASSIFICATION_TYPE":"U","RCS_SIZE":"LARGE","EPOCH":"2022-12-30T18:22:32.418336","MEAN_MOTION":"15.08841652","TIME_SYSTEM":"UTC","TLE_LINE1":"1 53857U 22114AR  22364.76565299  .00001397  00000-0  10588-3 0  9999","SITE":"AFETR","COUNTRY_CODE":"US","INCLINATION":"53.2165","TLE_LINE2":"2 53857  53.2165 123.2375 0001745  43.5976 316.5154 15.08841652 16570","OBJECT_ID":"2022-114AR","GP_ID":"221796509","SEMIMAJOR_AXIS":"6917.875","ECCENTRICITY":"0.00017450","MEAN_ELEMENT_THEORY":"SGP4","ELEMENT_SET_NO":"999","REV_AT_EPOCH":"1657","MEAN_ANOMALY":"316.5154"},{"ELEMENT_SET_NO":"999","REV_AT_EPOCH":"130","MEAN_ANOMALY":"293.5758","OBJECT_ID":"2022-114AS","GP_ID":"221790732","SEMIMAJOR_AXIS":"6873.172","ECCENTRICITY":"0.00015460","MEAN_ELEMENT_THEORY":"SGP4","SITE":"AFETR","TLE_LINE1":"1 53858U 22114AS  22364.58334491 -.01162975  00000-0 -52058-1 0  9997","COUNTRY_CODE":"US","INCLINATION":"53.2170","TLE_LINE2":"2 53858  53.2170 114.9846 0001546  49.9271 293.5758 15.23585829  1301","CLASSIFICATION_TYPE":"U","RCS_SIZE":"LARGE","EPOCH":"2022-12-30T14:00:01.000224","MEAN_MOTION":"15.23585829","TIME_SYSTEM":"UTC","LAUNCH_DATE":"2022-09-19","NORAD_CAT_ID":"53858","MEAN_MOTION_DDOT":"0.0000000000000","PERIOD":"94.514","APOAPSIS":"496.100","REF_FRAME":"TEME","OBJECT_NAME":"STARLINK-4798","BSTAR":"-0.05205800000000","RA_OF_ASC_NODE":"114.9846","DECAY_DATE":null,"FILE":"3726810","PERIAPSIS":"493.975","ARG_OF_PERICENTER":"49.9271","EPHEMERIS_TYPE":"0","CENTER_NAME":"EARTH","OBJECT_TYPE":"PAYLOAD","MEAN_MOTION_DOT":"-0.01162975"},{"RA_OF_ASC_NODE":"119.2599","OBJECT_NAME":"STARLINK-4790","BSTAR":"-0.00148090000000","FILE":"3726810","PERIAPSIS":"538.246","ARG_OF_PERICENTER":"51.2630","DECAY_DATE":null,"EPHEMERIS_TYPE":"0","OBJECT_TYPE":"PAYLOAD","MEAN_MOTION_DOT":"-0.00023815","CENTER_NAME":"EARTH","LAUNCH_DATE":"2022-09-19","NORAD_CAT_ID":"53859","PERIOD":"95.434","MEAN_MOTION_DDOT":"0.0000000000000","REF_FRAME":"TEME","APOAPSIS":"540.912","COUNTRY_CODE":"US","SITE":"AFETR","TLE_LINE1":"1 53859U 22114AT  22364.58334491 -.00023815  00000-0 -14809-2 0  9999","INCLINATION":"53.2156","TLE_LINE2":"2 53859  53.2156 119.2599 0001927  51.2630 300.0664 15.08894447  1309","RCS_SIZE":"LARGE","EPOCH":"2022-12-30T14:00:01.000224","CLASSIFICATION_TYPE":"U","TIME_SYSTEM":"UTC","MEAN_MOTION":"15.08894447","ELEMENT_SET_NO":"999","REV_AT_EPOCH":"130","MEAN_ANOMALY":"300.0664","OBJECT_ID":"2022-114AT","GP_ID":"221790941","MEAN_ELEMENT_THEORY":"SGP4","SEMIMAJOR_AXIS":"6917.714","ECCENTRICITY":"0.00019270"},{"FILE":"3726810","ARG_OF_PERICENTER":"38.6256","PERIAPSIS":"492.396","DECAY_DATE":null,"RA_OF_ASC_NODE":"114.9306","OBJECT_NAME":"STARLINK-4799","BSTAR":"-0.05301600000000","OBJECT_TYPE":"PAYLOAD","MEAN_MOTION_DOT":"-0.01202343","CENTER_NAME":"EARTH","EPHEMERIS_TYPE":"0","NORAD_CAT_ID":"53860","LAUNCH_DATE":"2022-09-19","REF_FRAME":"TEME","APOAPSIS":"494.081","PERIOD":"94.477","MEAN_MOTION_DDOT":"0.0000000000000","INCLINATION":"53.2172","TLE_LINE2":"2 53860  53.2172 114.9306 0001226  38.6256 332.2974 15.24183987  1301","COUNTRY_CODE":"US","SITE":"AFETR","TLE_LINE1":"1 53860U 22114AU  22364.58334491 -.01202343  00000-0 -53016-1 0  9999","TIME_SYSTEM":"UTC","MEAN_MOTION":"15.24183987","RCS_SIZE":"LARGE","EPOCH":"2022-12-30T14:00:01.000224","CLASSIFICATION_TYPE":"U","MEAN_ANOMALY":"332.2974","REV_AT_EPOCH":"130","ELEMENT_SET_NO":"999","MEAN_ELEMENT_THEORY":"SGP4","SEMIMAJOR_AXIS":"6871.374","ECCENTRICITY":"0.00012260","OBJECT_ID":"2022-114AU","GP_ID":"221789477"},{"LAUNCH_DATE":"2022-09-19","NORAD_CAT_ID":"53861","MEAN_MOTION_DDOT":"0.0000000000000","PERIOD":"94.559","APOAPSIS":"498.419","REF_FRAME":"TEME","OBJECT_NAME":"STARLINK-4781","BSTAR":"-0.05252100000000","RA_OF_ASC_NODE":"113.0443","DECAY_DATE":null,"FILE":"3727142","PERIAPSIS":"496.027","ARG_OF_PERICENTER":"44.9296","EPHEMERIS_TYPE":"0","CENTER_NAME":"EARTH","OBJECT_TYPE":"PAYLOAD","MEAN_MOTION_DOT":"-0.01149307","ELEMENT_SET_NO":"999","REV_AT_EPOCH":"1673","MEAN_ANOMALY":"78.3167","OBJECT_ID":"2022-114AV","GP_ID":"221796263","SEMIMAJOR_AXIS":"6875.358","ECCENTRICITY":"0.00017390","MEAN_ELEMENT_THEORY":"SGP4","SITE":"AFETR","TLE_LINE1":"1 53861U 22114AV  22365.00001157 -.01149307  00000-0 -52521-1 0  9998","COUNTRY_CODE":"US","INCLINATION":"53.2172","TLE_LINE2":"2 53861  53.2172 113.0443 0001739  44.9296  78.3167 15.22859311 16731","CLASSIFICATION_TYPE":"U","RCS_SIZE":"LARGE","EPOCH":"2022-12-31T00:00:00.999648","MEAN_MOTION":"15.22859311","TIME_SYSTEM":"UTC"},{"NORAD_CAT_ID":"53862","LAUNCH_DATE":"2022-09-19","APOAPSIS":"495.793","REF_FRAME":"TEME","MEAN_MOTION_DDOT":"0.0000000000000","PERIOD":"94.505","DECAY_DATE":null,"PERIAPSIS":"493.427","ARG_OF_PERICENTER":"47.2613","FILE":"3727167","BSTAR":"-0.05116900000000","OBJECT_NAME":"STARLINK-4792","RA_OF_ASC_NODE":"112.9624","CENTER_NAME":"EARTH","MEAN_MOTION_DOT":"-0.01149155","OBJECT_TYPE":"PAYLOAD","EPHEMERIS_TYPE":"0","REV_AT_EPOCH":"1673","MEAN_ANOMALY":"117.5283","ELEMENT_SET_NO":"999","ECCENTRICITY":"0.00017210","SEMIMAJOR_AXIS":"6872.745","MEAN_ELEMENT_THEORY":"SGP4","GP_ID":"221797091","OBJECT_ID":"2022-114AW","TLE_LINE2":"2 53862  53.2173 112.9624 0001721  47.2613 117.5283 15.23727816 16732","INCLINATION":"53.2173","TLE_LINE1":"1 53862U 22114AW  22365.00001157 -.01149155  00000-0 -51169-1 0  9997","SITE":"AFETR","COUNTRY_CODE":"US","MEAN_MOTION":"15.23727816","TIME_SYSTEM":"UTC","CLASSIFICATION_TYPE":"U","EPOCH":"2022-12-31T00:00:00.999648","RCS_SIZE":"LARGE"},{"MEAN_ELEMENT_THEORY":"SGP4","SEMIMAJOR_AXIS":"6871.630","ECCENTRICITY":"0.00015140","OBJECT_ID":"2022-114AX","GP_ID":"221790523","MEAN_ANOMALY":"321.9088","REV_AT_EPOCH":"130","ELEMENT_SET_NO":"999","TIME_SYSTEM":"UTC","MEAN_MOTION":"15.24098677","RCS_SIZE":"LARGE","EPOCH":"2022-12-30T14:00:01.000224","CLASSIFICATION_TYPE":"U","INCLINATION":"53.2172","TLE_LINE2":"2 53863  53.2172 114.9379 0001514  45.0732 321.9088 15.24098677  1307","COUNTRY_CODE":"US","SITE":"AFETR","TLE_LINE1":"1 53863U 22114AX  22364.58334491 -.01161541  00000-0 -51196-1 0  9993","REF_FRAME":"TEME","APOAPSIS":"494.536","PERIOD":"94.482","MEAN_MOTION_DDOT":"0.0000000000000","NORAD_CAT_ID":"53863","LAUNCH_DATE":"2022-09-19","OBJECT_TYPE":"PAYLOAD","MEAN_MOTION_DOT":"-0.01161541","CENTER_NAME":"EARTH","EPHEMERIS_TYPE":"0","FILE":"3726810","PERIAPSIS":"492.455","ARG_OF_PERICENTER":"45.0732","DECAY_DATE":null,"RA_OF_ASC_NODE":"114.9379","OBJECT_NAME":"STARLINK-4788","BSTAR":"-0.05119600000000"},{"NORAD_CAT_ID":"53864","LAUNCH_DATE":"2022-09-19","REF_FRAME":"TEME","APOAPSIS":"484.024","PERIOD":"94.263","MEAN_MOTION_DDOT":"0.0000000000000","FILE":"3727167","ARG_OF_PERICENTER":"39.0190","PERIAPSIS":"481.739","DECAY_DATE":null,"RA_OF_ASC_NODE":"112.6795","OBJECT_NAME":"STARLINK-4779","BSTAR":"-0.04572100000000","OBJECT_TYPE":"PAYLOAD","MEAN_MOTION_DOT":"-0.01140186","CENTER_NAME":"EARTH","EPHEMERIS_TYPE":"0","MEAN_ANOMALY":"268.9856","REV_AT_EPOCH":"1673","ELEMENT_SET_NO":"999","MEAN_ELEMENT_THEORY":"SGP4","SEMIMAJOR_AXIS":"6861.017","ECCENTRICITY":"0.00016650","OBJECT_ID":"2022-114AY","GP_ID":"221796800","INCLINATION":"53.2171","TLE_LINE2":"2 53864  53.2171 112.6795 0001665  39.0190 268.9856 15.27636550 16739","COUNTRY_CODE":"US","TLE_LINE1":"1 53864U 22114AY  22365.00001157 -.01140186  00000-0 -45721-1 0  9991","SITE":"AFETR","TIME_SYSTEM":"UTC","MEAN_MOTION":"15.27636550","RCS_SIZE":"LARGE","EPOCH":"2022-12-31T00:00:00.999648","CLASSIFICATION_TYPE":"U"},{"FILE":"3726810","ARG_OF_PERICENTER":"45.0356","PERIAPSIS":"483.845","DECAY_DATE":null,"RA_OF_ASC_NODE":"114.7208","OBJECT_NAME":"STARLINK-4785","BSTAR":"-0.04858100000000","OBJECT_TYPE":"PAYLOAD","MEAN_MOTION_DOT":"-0.01199343","CENTER_NAME":"EARTH","EPHEMERIS_TYPE":"0","NORAD_CAT_ID":"53865","LAUNCH_DATE":"2022-09-19","REF_FRAME":"TEME","APOAPSIS":"485.866","PERIOD":"94.304","MEAN_MOTION_DDOT":"0.0000000000000","INCLINATION":"53.2172","TLE_LINE2":"2 53865  53.2172 114.7208 0001472  45.0356  71.9435 15.26977609  1304","COUNTRY_CODE":"US","SITE":"AFETR","TLE_LINE1":"1 53865U 22114AZ  22364.58334491 -.01199343  00000-0 -48581-1 0  9990","TIME_SYSTEM":"UTC","MEAN_MOTION":"15.26977609","RCS_SIZE":"LARGE","EPOCH":"2022-12-30T14:00:01.000224","CLASSIFICATION_TYPE":"U","MEAN_ANOMALY":"71.9435","REV_AT_EPOCH":"130","ELEMENT_SET_NO":"999","MEAN_ELEMENT_THEORY":"SGP4","SEMIMAJOR_AXIS":"6862.990","ECCENTRICITY":"0.00014720","OBJECT_ID":"2022-114AZ","GP_ID":"221790105"}];
